{
    "links": {
        "self": "http://www.neowsapp.com/rest/v1/neo/54016781?api_key=iIulBulltgU6a56xZRHN4H3l9WmuAYTsLGpBGhQ2"
    },
    "id": "54016781",
    "neo_reference_id": "54016781",
    "name": "(2020 HL7)",
    "designation": "2020 HL7",
    "nasa_jpl_url": "http://ssd.jpl.nasa.gov/sbdb.cgi?sstr=54016781",
    "absolute_magnitude_h": 22.945,
    "estimated_diameter": {
        "kilometers": {
            "estimated_diameter_min": 0.0684786164,
            "estimated_diameter_max": 0.1531228412
        },
        "meters": {
            "estimated_diameter_min": 68.4786163531,
            "estimated_diameter_max": 153.1228411707
        },
        "miles": {
            "estimated_diameter_min": 0.0425506263,
            "estimated_diameter_max": 0.0951460929
        },
        "feet": {
            "estimated_diameter_min": 224.667383676,
            "estimated_diameter_max": 502.3715422266
        }
    },
    "is_potentially_hazardous_asteroid": false,
    "close_approach_data": [
        {
            "close_approach_date": "2018-04-09",
            "close_approach_date_full": "2018-Apr-09 22:14",
            "epoch_date_close_approach": 1523312040000,
            "relative_velocity": {
                "kilometers_per_second": "17.078951086",
                "kilometers_per_hour": "61484.223909658",
                "miles_per_hour": "38203.9056843094"
            },
            "miss_distance": {
                "astronomical": "0.3703528457",
                "lunar": "144.0672569773",
                "kilometers": "55403996.865158659",
                "miles": "34426447.2764371342"
            },
            "orbiting_body": "Earth"
        },
        {
            "close_approach_date": "2020-05-12",
            "close_approach_date_full": "2020-May-12 18:10",
            "epoch_date_close_approach": 1589307000000,
            "relative_velocity": {
                "kilometers_per_second": "7.3409776894",
                "kilometers_per_hour": "26427.519681677",
                "miles_per_hour": "16421.0329933176"
            },
            "miss_distance": {
                "astronomical": "0.0909304937",
                "lunar": "35.3719620493",
                "kilometers": "13603008.175568419",
                "miles": "8452517.3318614222"
            },
            "orbiting_body": "Earth"
        },
        {
            "close_approach_date": "2022-07-21",
            "close_approach_date_full": "2022-Jul-21 05:23",
            "epoch_date_close_approach": 1658380980000,
            "relative_velocity": {
                "kilometers_per_second": "16.9380708156",
                "kilometers_per_hour": "60977.0549361398",
                "miles_per_hour": "37888.7706074031"
            },
            "miss_distance": {
                "astronomical": "0.4517257148",
                "lunar": "175.7213030572",
                "kilometers": "67577204.758307476",
                "miles": "41990527.9101601288"
            },
            "orbiting_body": "Earth"
        }
    ],
    "orbital_data": {
        "orbit_id": "12",
        "orbit_determination_date": "2020-06-10 05:54:31",
        "first_observation_date": "2020-04-25",
        "last_observation_date": "2020-06-10",
        "data_arc_in_days": 46,
        "observations_used": 118,
        "orbit_uncertainty": "7",
        "minimum_orbit_intersection": ".0577197",
        "jupiter_tisserand_invariant": "4.224",
        "epoch_osculation": "2459000.5",
        "eccentricity": ".3650586187042176",
        "semi_major_axis": "1.624559462049883",
        "inclination": "10.95472841048201",
        "ascending_node_longitude": "213.7866480656137",
        "orbital_period": "756.3134866919282",
        "perihelion_distance": "1.031500028831086",
        "perihelion_argument": "33.62166406539477",
        "aphelion_distance": "2.21761889526868",
        "perihelion_time": "2458999.412495352662",
        "mean_anomaly": ".5176447067659579",
        "mean_motion": ".475993098542536",
        "equinox": "J2000",
        "orbit_class": {
            "orbit_class_type": "AMO",
            "orbit_class_description": "Near-Earth asteroid orbits similar to that of 1221 Amor",
            "orbit_class_range": "1.017 AU < q (perihelion) < 1.3 AU"
        }
    },
    "is_sentry_object": false
}